[
  {
    "COMMENT": "GENERATED VIA SPACETRACK.ORG API",
    "ORIGINATOR": "18 SPCS",
    "NORAD_CAT_ID": "48621",
    "OBJECT_NAME": "HAIYANG 2D",
    "OBJECT_TYPE": "PAYLOAD",
    "CLASSIFICATION_TYPE": "U",
    "INTLDES": "21043A",
    "EPOCH": "2021-10-07 20:00:21",
    "EPOCH_MICROSECONDS": "745728",
    "MEAN_MOTION": "13.83375827",
    "ECCENTRICITY": "0.0007257",
    "INCLINATION": "65.9964",
    "RA_OF_ASC_NODE": "250.359",
    "ARG_OF_PERICENTER": "258.3181",
    "MEAN_ANOMALY": "101.7072",
    "EPHEMERIS_TYPE": "0",
    "ELEMENT_SET_NO": "999",
    "REV_AT_EPOCH": "1959",
    "BSTAR": "0.000053216",
    "MEAN_MOTION_DOT": "-0.00000023",
    "MEAN_MOTION_DDOT": "0",
    "FILE": "3150042",
    "TLE_LINE0": "0 HAIYANG 2D",
    "TLE_LINE1": "1 48621U 21043A   21280.83358502 -.00000023  00000-0  53216-4 0  9995",
    "TLE_LINE2": "2 48621  65.9964 250.3590 0007257 258.3181 101.7072 13.83375827 19594",
    "OBJECT_ID": "2021-043A",
    "OBJECT_NUMBER": "48621",
    "SEMIMAJOR_AXIS": "7330.074",
    "PERIOD": "104.093",
    "APOGEE": "957.259",
    "PERIGEE": "946.620",
    "DECAYED": "0"
  },
  {
    "COMMENT": "GENERATED VIA SPACETRACK.ORG API",
    "ORIGINATOR": "18 SPCS",
    "NORAD_CAT_ID": "48621",
    "OBJECT_NAME": "HAIYANG 2D",
    "OBJECT_TYPE": "PAYLOAD",
    "CLASSIFICATION_TYPE": "U",
    "INTLDES": "21043A",
    "EPOCH": "2021-10-08 06:24:59",
    "EPOCH_MICROSECONDS": "318208",
    "MEAN_MOTION": "13.83375821",
    "ECCENTRICITY": "0.0007249",
    "INCLINATION": "65.9965",
    "RA_OF_ASC_NODE": "249.2791",
    "ARG_OF_PERICENTER": "258.3083",
    "MEAN_ANOMALY": "101.7168",
    "EPHEMERIS_TYPE": "0",
    "ELEMENT_SET_NO": "999",
    "REV_AT_EPOCH": "1965",
    "BSTAR": "0.00005099",
    "MEAN_MOTION_DOT": "-0.00000025",
    "MEAN_MOTION_DDOT": "0",
    "FILE": "3150800",
    "TLE_LINE0": "0 HAIYANG 2D",
    "TLE_LINE1": "1 48621U 21043A   21281.26735322 -.00000025  00000-0  50990-4 0  9990",
    "TLE_LINE2": "2 48621  65.9965 249.2791 0007249 258.3083 101.7168 13.83375821 19654",
    "OBJECT_ID": "2021-043A",
    "OBJECT_NUMBER": "48621",
    "SEMIMAJOR_AXIS": "7330.074",
    "PERIOD": "104.093",
    "APOGEE": "957.253",
    "PERIGEE": "946.626",
    "DECAYED": "0"
  },
  {
    "COMMENT": "GENERATED VIA SPACETRACK.ORG API",
    "ORIGINATOR": "18 SPCS",
    "NORAD_CAT_ID": "48621",
    "OBJECT_NAME": "HAIYANG 2D",
    "OBJECT_TYPE": "PAYLOAD",
    "CLASSIFICATION_TYPE": "U",
    "INTLDES": "21043A",
    "EPOCH": "2021-10-08 09:53:11",
    "EPOCH_MICROSECONDS": "844960",
    "MEAN_MOTION": "13.83375849",
    "ECCENTRICITY": "0.000725",
    "INCLINATION": "65.9965",
    "RA_OF_ASC_NODE": "248.9191",
    "ARG_OF_PERICENTER": "258.3907",
    "MEAN_ANOMALY": "101.6348",
    "EPHEMERIS_TYPE": "0",
    "ELEMENT_SET_NO": "999",
    "REV_AT_EPOCH": "1967",
    "BSTAR": "0.000051814",
    "MEAN_MOTION_DOT": "-0.00000024",
    "MEAN_MOTION_DDOT": "0",
    "FILE": "3151236",
    "TLE_LINE0": "0 HAIYANG 2D",
    "TLE_LINE1": "1 48621U 21043A   21281.41194265 -.00000024  00000-0  51814-4 0  9997",
    "TLE_LINE2": "2 48621  65.9965 248.9191 0007250 258.3907 101.6348 13.83375849 19672",
    "OBJECT_ID": "2021-043A",
    "OBJECT_NUMBER": "48621",
    "SEMIMAJOR_AXIS": "7330.074",
    "PERIOD": "104.093",
    "APOGEE": "957.254",
    "PERIGEE": "946.625",
    "DECAYED": "0"
  },
  {
    "COMMENT": "GENERATED VIA SPACETRACK.ORG API",
    "ORIGINATOR": "18 SPCS",
    "NORAD_CAT_ID": "48621",
    "OBJECT_NAME": "HAIYANG 2D",
    "OBJECT_TYPE": "PAYLOAD",
    "CLASSIFICATION_TYPE": "U",
    "INTLDES": "21043A",
    "EPOCH": "2021-10-08 13:21:24",
    "EPOCH_MICROSECONDS": "362208",
    "MEAN_MOTION": "13.83375854",
    "ECCENTRICITY": "0.0007249",
    "INCLINATION": "65.9964",
    "RA_OF_ASC_NODE": "248.5591",
    "ARG_OF_PERICENTER": "258.2938",
    "MEAN_ANOMALY": "101.7318",
    "EPHEMERIS_TYPE": "0",
    "ELEMENT_SET_NO": "999",
    "REV_AT_EPOCH": "1969",
    "BSTAR": "0.000050518",
    "MEAN_MOTION_DOT": "-0.00000026",
    "MEAN_MOTION_DDOT": "0",
    "FILE": "3151292",
    "TLE_LINE0": "0 HAIYANG 2D",
    "TLE_LINE1": "1 48621U 21043A   21281.55653197 -.00000026  00000-0  50518-4 0  9998",
    "TLE_LINE2": "2 48621  65.9964 248.5591 0007249 258.2938 101.7318 13.83375854 19698",
    "OBJECT_ID": "2021-043A",
    "OBJECT_NUMBER": "48621",
    "SEMIMAJOR_AXIS": "7330.074",
    "PERIOD": "104.093",
    "APOGEE": "957.253",
    "PERIGEE": "946.626",
    "DECAYED": "0"
  },
  {
    "COMMENT": "GENERATED VIA SPACETRACK.ORG API",
    "ORIGINATOR": "18 SPCS",
    "NORAD_CAT_ID": "48621",
    "OBJECT_NAME": "HAIYANG 2D",
    "OBJECT_TYPE": "PAYLOAD",
    "CLASSIFICATION_TYPE": "U",
    "INTLDES": "21043A",
    "EPOCH": "2021-10-08 15:05:30",
    "EPOCH_MICROSECONDS": "619968",
    "MEAN_MOTION": "13.83375823",
    "ECCENTRICITY": "0.0007257",
    "INCLINATION": "65.9964",
    "RA_OF_ASC_NODE": "248.379",
    "ARG_OF_PERICENTER": "258.5804",
    "MEAN_ANOMALY": "101.4444",
    "EPHEMERIS_TYPE": "0",
    "ELEMENT_SET_NO": "999",
    "REV_AT_EPOCH": "1970",
    "BSTAR": "0.000048412",
    "MEAN_MOTION_DOT": "-0.00000028",
    "MEAN_MOTION_DDOT": "0",
    "FILE": "3151837",
    "TLE_LINE0": "0 HAIYANG 2D",
    "TLE_LINE1": "1 48621U 21043A   21281.62882662 -.00000028  00000-0  48412-4 0  9999",
    "TLE_LINE2": "2 48621  65.9964 248.3790 0007257 258.5804 101.4444 13.83375823 19706",
    "OBJECT_ID": "2021-043A",
    "OBJECT_NUMBER": "48621",
    "SEMIMAJOR_AXIS": "7330.074",
    "PERIOD": "104.093",
    "APOGEE": "957.259",
    "PERIGEE": "946.620",
    "DECAYED": "0"
  },
  {
    "COMMENT": "GENERATED VIA SPACETRACK.ORG API",
    "ORIGINATOR": "18 SPCS",
    "NORAD_CAT_ID": "48621",
    "OBJECT_NAME": "HAIYANG 2D",
    "OBJECT_TYPE": "PAYLOAD",
    "CLASSIFICATION_TYPE": "U",
    "INTLDES": "21043A",
    "EPOCH": "2021-10-08 22:01:55",
    "EPOCH_MICROSECONDS": "668288",
    "MEAN_MOTION": "13.83375853",
    "ECCENTRICITY": "0.0007254",
    "INCLINATION": "65.9964",
    "RA_OF_ASC_NODE": "247.6592",
    "ARG_OF_PERICENTER": "258.4349",
    "MEAN_ANOMALY": "101.5904",
    "EPHEMERIS_TYPE": "0",
    "ELEMENT_SET_NO": "999",
    "REV_AT_EPOCH": "1974",
    "BSTAR": "0.000048291",
    "MEAN_MOTION_DOT": "-0.00000028",
    "MEAN_MOTION_DDOT": "0",
    "FILE": "3152020",
    "TLE_LINE0": "0 HAIYANG 2D",
    "TLE_LINE1": "1 48621U 21043A   21281.91800542 -.00000028  00000-0  48291-4 0  9993",
    "TLE_LINE2": "2 48621  65.9964 247.6592 0007254 258.4349 101.5904 13.83375853 19747",
    "OBJECT_ID": "2021-043A",
    "OBJECT_NUMBER": "48621",
    "SEMIMAJOR_AXIS": "7330.074",
    "PERIOD": "104.093",
    "APOGEE": "957.257",
    "PERIGEE": "946.622",
    "DECAYED": "0"
  },
  {
    "COMMENT": "GENERATED VIA SPACETRACK.ORG API",
    "ORIGINATOR": "18 SPCS",
    "NORAD_CAT_ID": "48621",
    "OBJECT_NAME": "HAIYANG 2D",
    "OBJECT_TYPE": "PAYLOAD",
    "CLASSIFICATION_TYPE": "U",
    "INTLDES": "21043A",
    "EPOCH": "2021-10-09 01:30:08",
    "EPOCH_MICROSECONDS": "188128",
    "MEAN_MOTION": "13.83375742",
    "ECCENTRICITY": "0.0007243",
    "INCLINATION": "65.9965",
    "RA_OF_ASC_NODE": "247.2992",
    "ARG_OF_PERICENTER": "258.3258",
    "MEAN_ANOMALY": "101.6983",
    "EPHEMERIS_TYPE": "0",
    "ELEMENT_SET_NO": "999",
    "REV_AT_EPOCH": "1976",
    "BSTAR": "0.000040002",
    "MEAN_MOTION_DOT": "-0.00000037",
    "MEAN_MOTION_DDOT": "0",
    "FILE": "3152633",
    "TLE_LINE0": "0 HAIYANG 2D",
    "TLE_LINE1": "1 48621U 21043A   21282.06259477 -.00000037  00000-0  40002-4 0  9997",
    "TLE_LINE2": "2 48621  65.9965 247.2992 0007243 258.3258 101.6983 13.83375742 19761",
    "OBJECT_ID": "2021-043A",
    "OBJECT_NUMBER": "48621",
    "SEMIMAJOR_AXIS": "7330.075",
    "PERIOD": "104.093",
    "APOGEE": "957.249",
    "PERIGEE": "946.631",
    "DECAYED": "0"
  },
  {
    "COMMENT": "GENERATED VIA SPACETRACK.ORG API",
    "ORIGINATOR": "18 SPCS",
    "NORAD_CAT_ID": "48621",
    "OBJECT_NAME": "HAIYANG 2D",
    "OBJECT_TYPE": "PAYLOAD",
    "CLASSIFICATION_TYPE": "U",
    "INTLDES": "21043A",
    "EPOCH": "2021-10-09 01:30:08",
    "EPOCH_MICROSECONDS": "188128",
    "MEAN_MOTION": "13.83375742",
    "ECCENTRICITY": "0.0007243",
    "INCLINATION": "65.9965",
    "RA_OF_ASC_NODE": "247.2992",
    "ARG_OF_PERICENTER": "258.3258",
    "MEAN_ANOMALY": "101.6983",
    "EPHEMERIS_TYPE": "0",
    "ELEMENT_SET_NO": "999",
    "REV_AT_EPOCH": "1976",
    "BSTAR": "0.000040002",
    "MEAN_MOTION_DOT": "-0.00000037",
    "MEAN_MOTION_DDOT": "0",
    "FILE": "3153337",
    "TLE_LINE0": "0 HAIYANG 2D",
    "TLE_LINE1": "1 48621U 21043A   21282.06259477 -.00000037  00000-0  40002-4 0  9997",
    "TLE_LINE2": "2 48621  65.9965 247.2992 0007243 258.3258 101.6983 13.83375742 19761",
    "OBJECT_ID": "2021-043A",
    "OBJECT_NUMBER": "48621",
    "SEMIMAJOR_AXIS": "7330.075",
    "PERIOD": "104.093",
    "APOGEE": "957.249",
    "PERIGEE": "946.631",
    "DECAYED": "0"
  }
]